QIANFAN-41              
1 62242U 24232F   25291.95432160  .00000166  00000+0  23801-3 0  9997
2 62242  89.0027  46.7125 0013326 356.7932   3.3131 13.50978747 91854
QIANFAN-42              
1 62243U 24232G   25291.90934220  .00000877  00000+0  37288-3 0  9990
2 62243  89.0024  43.6062 0012938 261.4254  98.5473 14.24397949 93561
QIANFAN-43              
1 62244U 24232H   25291.95023583  .00000180  00000+0  26056-3 0  9995
2 62244  89.0032  46.7758 0014990   1.5622 358.5574 13.50979790 60461
QIANFAN-44              
1 62245U 24232J   25291.93782411  .00000146  00000+0  20797-3 0  9994
2 62245  89.0030  46.5887 0013131 359.4078   0.7055 13.50980880 91935
QIANFAN-45              
1 62246U 24232K   25291.90497957  .00000156  00000+0  22389-3 0  9990
2 62246  89.0034  46.7366 0013762 358.8073   1.3043 13.50977537 91852
QIANFAN-46              
1 62247U 24232L   25291.92963858  .00000144  00000+0  20514-3 0  9996
2 62247  89.0029  46.8053 0014018   4.3846 355.7426 13.50978144 91819
QIANFAN-47              
1 62248U 24232M   25291.93376434  .00000146  00000+0  20685-3 0  9997
2 62248  89.0026  46.7401 0014406   3.2839 356.8404 13.50979894 91848
QIANFAN-48              
1 62249U 24232N   25291.97087012  .00000155  00000+0  22162-3 0  9995
2 62249  89.0029  46.7360 0016714   4.8816 355.2495 13.50975910 91851
